[{"OBJECT_NAME":"STARLINK-33997","OBJECT_ID":"2025-098C","EPOCH":"2026-03-09T22:20:46.078368","MEAN_MOTION":14.96551413,"ECCENTRICITY":0.00068477,"INCLINATION":70.0004,"RA_OF_ASC_NODE":274.0384,"ARG_OF_PERICENTER":77.5305,"MEAN_ANOMALY":282.6619,"EPHEMERIS_TYPE":0,"CLASSIFICATION_TYPE":"U","NORAD_CAT_ID":63928,"ELEMENT_SET_NO":999,"REV_AT_EPOCH":4660,"BSTAR":-0.062237161,"MEAN_MOTION_DOT":-0.00663337,"MEAN_MOTION_DDOT":0},{"OBJECT_NAME":"NOAA 16 DEB","OBJECT_ID":"2000-055H","EPOCH":"2026-03-09T15:17:39.054912","MEAN_MOTION":14.86787566,"ECCENTRICITY":0.00103234,"INCLINATION":98.927,"RA_OF_ASC_NODE":278.6901,"ARG_OF_PERICENTER":0.809,"MEAN_ANOMALY":359.3138,"EPHEMERIS_TYPE":0,"CLASSIFICATION_TYPE":"U","NORAD_CAT_ID":41050,"ELEMENT_SET_NO":999,"REV_AT_EPOCH":53637,"BSTAR":0.0042757384,"MEAN_MOTION_DOT":0.00038264,"MEAN_MOTION_DDOT":0}]
